Corps du système solaire : Terre (Planet)
Époque : 2022-01-31T05:32:26.132 / +10000 / 1 Jour / UTC
Système de coordonnées (ICRF) : Héliocentre – Écliptique – Astrométrique J2000 – Cartésiennes
Options : INPOP19a
Éphémérides de position
Colonnes :
1: Date (undefined)
2: px (au)
3: py (au)
4: pz (au)
5: Dobs (au)
6: Phase (deg)
7: VMag (mag)
8: vx (au/d)
9: vy (au/d)
10: vz (au/d)
11: RV (km/s)
$$SOE
2464474.7308580093 -0.423230063192 -0.920421062962  0.000076753991  1.01306397894 0  -3.8  0.015345677624  -0.00725639532      9.60051e-7  0.3147994
2464475.7308580093 -0.407824487299 -0.927546776058  0.000077741572 1.013244215508 0  -3.8   0.01546480958 -0.006994702616  0.000001011353  0.3092732
2464476.7308580093 -0.392301876194 -0.934409771545  0.000078768529 1.013421131332 0  -3.8    0.0155797384 -0.006730962347  0.000001038168  0.3032916
2464477.7308580093 -0.376666462414 -0.941008010993  0.000079808528 1.013594448994 0  -3.8   0.01569040355 -0.006465192804  0.000001036862  0.2968049
2464478.7308580093 -0.360922544579 -0.947339474556  0.000080831817 1.013763862924 0  -3.8  0.015796732809 -0.006197413148  0.000001004281  0.2897658
2464479.7308580093 -0.345074500929 -0.953402163097   0.00008180588 1.013929042134 0  -3.8  0.015898638501  -0.00592764637      9.38125e-7  0.2821349
2464480.7308580093 -0.329126806586 -0.959194104797  0.000082696572 1.014089637226 0  -3.8  0.015996014104 -0.005655925446      8.37564e-7  0.2738898
2464481.7308580093 -0.313084053121 -0.964713369744  0.000083469997  1.01424529432 0  -3.8  0.016088733495 -0.005382303134      7.04079e-7    0.26504
2464482.7308580093  -0.29695096629 -0.969958095756  0.000084095262 1.014395677719 0  -3.8  0.016176655879 -0.005106864215      5.42317e-7  0.2556414
2464483.7308580093 -0.280732414917 -0.974926526154  0.000084547932 1.014540500588 0  -3.8  0.016259638796 -0.004829736309      3.60573e-7  0.2458083
2464484.7308580093  -0.26443340285  -0.97961705519  0.000084813584 1.014679558558 0  -3.8  0.016337558441 -0.004551093293      1.70422e-7  0.2357103
2464485.7308580093 -0.248059039141 -0.984028270924  0.000084890446 1.014812757154 0  -3.8  0.016410331541 -0.004271146289      -1.4732e-8  0.2255534
2464486.7308580093 -0.231614489312 -0.988158982755  0.000084790159 1.014940123381 0  -3.8  0.016477929801 -0.003990122656     -1.81862e-7  0.2155462
2464487.7308580093 -0.215104918896 -0.992008224748  0.000084536271 1.015061796762 0  -3.8  0.016540380325 -0.003708240224     -3.20482e-7  0.2058647
2464488.7308580093 -0.198535443649 -0.995575235012  0.000084160959 1.015178003129 0 -3.79  0.016597752605  -0.00342568668     -4.23945e-7  0.1966293
2464489.7308580093 -0.181911096717 -0.998859419874  0.000083701018 1.015289020321 0 -3.79  0.016650139054 -0.003142610206     -4.89607e-7  0.1879003
2464490.7308580093 -0.165236815078 -1.001860314364  0.000083194151 1.015395145486 0 -3.79  0.016697637047 -0.002859120977      -5.1813e-7  0.1796867
2464491.7308580093 -0.148517441099 -1.004577547813   0.00008267617 1.015496669968 0 -3.79  0.016740337018 -0.002575298949     -5.12464e-7   0.171962
2464492.7308580093 -0.131757732687 -1.007010818285  0.000082179199 1.015593863225 0 -3.79  0.016778316997  -0.00229120311     -4.76896e-7  0.1646791
2464493.7308580093 -0.114962376423  -1.00915987566  0.000081730694 1.015686964234 0 -3.79  0.016811641694 -0.002006879171     -4.16388e-7   0.157781
2464494.7308580093 -0.098136000321 -1.011024511158  0.000081352991 1.015776177777 0 -3.79  0.016840363844 -0.001722364756     -3.36178e-7  0.1512069
2464495.7308580093 -0.081283184849 -1.012604550871   0.00008106313 1.015861673239 0 -3.79  0.016864526093 -0.001437692326     -2.41595e-7  0.1448953
2464496.7308580093 -0.064408472207 -1.013899851407  0.000080872812 1.015943584318 0 -3.79  0.016884162529 -0.001152890592     -1.37981e-7  0.1387841
2464497.7308580093 -0.047516374405 -1.014910296496  0.000080788403 1.016022008766 0 -3.79  0.016899299517 -0.000867985166      -3.0661e-8  0.1328108
2464498.7308580093 -0.030611380837 -1.015635794114  0.000080810969 1.016097007895 0 -3.79  0.016909955915 -0.000582999014       7.5101e-8  0.1269118
2464499.7308580093 -0.013697965847 -1.016076274125  0.000080936368 1.016168605921 0 -3.79  0.016916142917 -0.000297953054      1.74163e-7  0.1210222
2464500.7308580093  0.003219403471 -1.016231686614  0.000081155413 1.016236789347 0 -3.79  0.016917863773 -0.000012866968      2.61591e-7  0.1150763
2464501.7308580093   0.02013625922 -1.016102001132  0.000081454125 1.016301506579 0 -3.79  0.016915113606  0.000272239827      3.32753e-7   0.109008
2464502.7308580093  0.037048124531 -1.015687206919  0.000081814079 1.016362667813 0 -3.79   0.01690787933  0.000557347225      3.83408e-7  0.1027512
2464503.7308580093  0.053950505316 -1.014987314013  0.000082212841 1.016420145112 0 -3.79  0.016896139563  0.000842433604      4.09784e-7  0.0962399
2464504.7308580093  0.070838881837 -1.014002355134  0.000082624473 1.016473772521 0 -3.79  0.016879864282  0.001127475099      4.08662e-7  0.0894084
2464505.7308580093  0.087708699681 -1.012732388334  0.000083020136 1.016523346153 0 -3.79  0.016859013959  0.001412444726      3.77482e-7  0.0821911
2464506.7308580093  0.104555359564 -1.011177500815  0.000083368835   1.0165686245 0 -3.79  0.016833538079  0.001697310815      3.14535e-7  0.0745237
2464507.7308580093  0.121374205423 -1.009337814947  0.000083638417 1.016609329791 0 -3.79  0.016803373287  0.001982034036      2.19276e-7  0.0663456
2464508.7308580093  0.138160510791 -1.007213498308  0.000083796959 1.016645151927 0 -3.79  0.016768442011  0.002266562225       9.2806e-8  0.0576067
2464509.7308580093  0.154909464691 -1.004804780163  0.000083814714 1.016675757316 0 -3.79  0.016728653215  0.002550822696      -6.1515e-8   0.048278
2464510.7308580093  0.171616160277 -1.002111976611  0.000083666679 1.016700805122 0 -3.79  0.016683907551  0.002834712882     -2.37481e-7  0.0383662
2464511.7308580093  0.188275591716 -0.999135524833  0.000083335613 1.016719972443 0 -3.79  0.016634108881  0.003118092143     -4.25773e-7   0.027929
2464512.7308580093  0.204882665809 -0.995876023016  0.000082815005 1.016732986986 0 -3.79  0.016579181933  0.003400779508     -6.14404e-7  0.0170844
2464513.7308580093  0.221432232784 -0.992334267531  0.000082111122 1.016739661356 0 -3.79  0.016519091878  0.003682561969     -7.90112e-7  0.0060061
2464514.7308580093  0.237919134421 -0.988511275985  0.000081243264 1.016739919485 0 -3.79  0.016453858046  0.003963214077     -9.40473e-7  -0.005099
2464515.7308580093  0.254338259879 -0.984408287107  0.000080241825 1.016733806166 0 -3.79  0.016383554772  0.004242523233 -0.000001056031 -0.0160254
2464516.7308580093  0.270684595162 -0.980026736477  0.000079144578 1.016721476379 0 -3.79  0.016308298343  0.004520311103 -0.000001131608 -0.0266017
2464517.7308580093    0.2869532549 -0.975368216118  0.000077992243 1.016703168872 0 -3.79  0.016228226068  0.004796443738   -0.0000011664 -0.0367111
2464518.7308580093  0.303139492942 -0.970434430263  0.000076824504 1.016679173349 0 -3.79  0.016143476196  0.005070829502 -0.000001163088 -0.0462931
2464519.7308580093   0.31923869594 -0.965227157537   0.00007567715 1.016649800256 0 -3.79  0.016054174543  0.005343409298  -0.00000112656 -0.0553339
2464520.7308580093  0.335246367547 -0.959748224309  0.000074580483 1.016615358225 0 -3.79  0.015960428928  0.005614144889  -0.00000106274 -0.0638511
2464521.7308580093  0.351158110148 -0.953999488919  0.000073558708 1.016576140086 0 -3.79  0.015862329349  0.005883009224     -9.77798e-7 -0.0718799
2464522.7308580093  0.366969608415  -0.94798283392  0.000072629925 1.016532415707 0 -3.79  0.015759950974  0.006149980181     -8.77731e-7 -0.0794634
2464523.7308580093  0.382676616288 -0.941700162928  0.000071806384 1.016484429132 0 -3.79   0.01565335773  0.006415037447     -7.68238e-7 -0.0866472
2464524.7308580093  0.398274947264 -0.935153399416  0.000071094782 1.016432397709 0 -3.79  0.015542605197  0.006678161594     -6.54736e-7 -0.0934781
2464525.7308580093  0.413760467026 -0.928344485765  0.000070496508 1.016376511581 0 -3.79  0.015427742336  0.006939334333      -5.4244e-7 -0.1000039
2464526.7308580093   0.42912908717 -0.921275381814  0.000070007806 1.016316932601 0 -3.79  0.015308812012  0.007198539137     -4.36428e-7 -0.1062749
2464527.7308580093  0.444376758967 -0.913948062854  0.000069619903 1.016253792294 0 -3.79   0.01518585057  0.007455761648     -3.41656e-7  -0.112346
2464528.7308580093  0.459499466367  -0.90636451749  0.000069319155 1.016187188938 0 -3.79  0.015058886815  0.007710989521     -2.62892e-7 -0.1182777
2464529.7308580093  0.474493217849 -0.898526745988  0.000069087289 1.016117184095 0 -3.79  0.014927940802   0.00796421157     -2.04602e-7 -0.1241367
2464530.7308580093  0.489354037118 -0.890436759826  0.000068901787 1.016043799075 0 -3.79  0.014793022769  0.008215416259     -1.70778e-7 -0.1299955
2464531.7308580093  0.504077952913 -0.882096582995  0.000068736462 1.015967011801 0 -3.79  0.014654132461  0.008464589741     -1.64737e-7 -0.1359316
2464532.7308580093  0.518660988353 -0.873508255413  0.000068562223 1.015886754424 0 -3.79  0.014511258875  0.008711713617     -1.88928e-7 -0.1420258
2464533.7308580093  0.533099150208 -0.864673838651  0.000068348055 1.015802911924 0 -3.79  0.014364380352  0.008956762562     -2.44726e-7 -0.1483603
2464534.7308580093  0.547388418399 -0.855595424151  0.000068062188 1.015715321858 0 -3.79  0.014213464916  0.009199701691     -3.32221e-7 -0.1550167
2464535.7308580093  0.561524735958 -0.846275144292  0.000067673506 1.015623775578 0 -3.79  0.014058470906  0.009440483407     -4.49976e-7 -0.1620728
2464536.7308580093   0.57550399993 -0.836715187048   0.00006715321 1.015528021613 0 -3.79  0.013899348336  0.009679043361     -5.94737e-7  -0.169598
2464537.7308580093   0.58932205437 -0.826917815169  0.000066476795 1.015427772532 0 -3.79  0.013736041902  0.009915295439     -7.61127e-7 -0.1776461
$$EOE
